[{"OBJECT_NAME":"YAOGAN-31 04C","OBJECT_ID":"2021-020D","EPOCH":"2026-03-09T22:27:49.782240","MEAN_MOTION":13.45440258,"ECCENTRICITY":0.01660597,"INCLINATION":63.4065,"RA_OF_ASC_NODE":153.1123,"ARG_OF_PERICENTER":0.0567,"MEAN_ANOMALY":0.045,"EPHEMERIS_TYPE":0,"CLASSIFICATION_TYPE":"U","NORAD_CAT_ID":47857,"ELEMENT_SET_NO":999,"REV_AT_EPOCH":24510,"BSTAR":3.7998347e-5,"MEAN_MOTION_DOT":-6.6e-7,"MEAN_MOTION_DDOT":0},{"OBJECT_NAME":"ONEWEB-0356","OBJECT_ID":"2021-090E","EPOCH":"2026-03-09T16:21:42.962400","MEAN_MOTION":13.20770247,"ECCENTRICITY":7.619e-5,"INCLINATION":87.9168,"RA_OF_ASC_NODE":294.3024,"ARG_OF_PERICENTER":76.5341,"MEAN_ANOMALY":283.5878,"EPHEMERIS_TYPE":0,"CLASSIFICATION_TYPE":"U","NORAD_CAT_ID":49283,"ELEMENT_SET_NO":999,"REV_AT_EPOCH":21669,"BSTAR":-0.00012805887,"MEAN_MOTION_DOT":-3.9e-7,"MEAN_MOTION_DDOT":0}]
